{
"type": "FeatureCollection",
"name": "plots_dirty",
"crs": { "type": "name", "properties": { "name": "urn:ogc:def:crs:EPSG::32636" } },
"features": [
{ "type": "Feature", "properties": { "plot_id": "PLT-001", "status": "approved", "area_m2": 2500.0, "surveyor_note": "" }, "geometry": { "type": "Polygon", "coordinates": [ [ [ 420000.0, 2790000.0 ], [ 420050.0, 2790000.0 ], [ 420050.0, 2790050.0 ], [ 420000.0, 2790050.0 ], [ 420000.0, 2790000.0 ] ] ] } },
{ "type": "Feature", "properties": { "plot_id": "PLT-002", "status": "approved", "area_m2": 2500.0, "surveyor_note": "" }, "geometry": { "type": "Polygon", "coordinates": [ [ [ 420100.0, 2790000.0 ], [ 420150.0, 2790000.0 ], [ 420150.0, 2790050.0 ], [ 420100.0, 2790050.0 ], [ 420100.0, 2790000.0 ] ] ] } },
{ "type": "Feature", "properties": { "plot_id": "PLT-002", "status": "approved", "area_m2": 2500.0, "surveyor_note": "" }, "geometry": { "type": "Polygon", "coordinates": [ [ [ 420100.0, 2790000.0 ], [ 420150.0, 2790000.0 ], [ 420150.0, 2790050.0 ], [ 420100.0, 2790050.0 ], [ 420100.0, 2790000.0 ] ] ] } },
{ "type": "Feature", "properties": { "plot_id": "PLT-003", "status": "pending", "area_m2": 2500.0, "surveyor_note": "" }, "geometry": { "type": "Polygon", "coordinates": [ [ [ 420200.0, 2790000.0 ], [ 420250.0, 2790000.0 ], [ 420250.0, 2790050.0 ], [ 420200.0, 2790050.0 ], [ 420200.0, 2790000.0 ] ] ] } },
{ "type": "Feature", "properties": { "plot_id": "PLT-004", "status": "pending", "area_m2": 2500.0, "surveyor_note": "" }, "geometry": { "type": "Polygon", "coordinates": [ [ [ 420230.0, 2790000.0 ], [ 420280.0, 2790000.0 ], [ 420280.0, 2790050.0 ], [ 420230.0, 2790050.0 ], [ 420230.0, 2790000.0 ] ] ] } },
{ "type": "Feature", "properties": { "plot_id": "PLT-005", "status": "Approved ", "area_m2": 2500.0, "surveyor_note": "" }, "geometry": { "type": "Polygon", "coordinates": [ [ [ 420400.0, 2790000.0 ], [ 420450.0, 2790000.0 ], [ 420450.0, 2790050.0 ], [ 420400.0, 2790050.0 ], [ 420400.0, 2790000.0 ] ] ] } },
{ "type": "Feature", "properties": { "plot_id": "PLT-006", "status": "pending", "area_m2": 2500.0, "surveyor_note": "" }, "geometry": { "type": "Polygon", "coordinates": [ [ [ 420600.0, 2790000.0 ], [ 420650.0, 2790050.0 ], [ 420600.0, 2790050.0 ], [ 420650.0, 2790000.0 ], [ 420600.0, 2790000.0 ] ] ] } },
{ "type": "Feature", "properties": { "plot_id": "PLT-007", "status": "pending", "area_m2": 12.0, "surveyor_note": "" }, "geometry": { "type": "Polygon", "coordinates": [ [ [ 420700.0, 2790000.0 ], [ 420700.400000000023283, 2790000.0 ], [ 420700.400000000023283, 2790030.0 ], [ 420700.0, 2790030.0 ], [ 420700.0, 2790000.0 ] ] ] } },
{ "type": "Feature", "properties": { "plot_id": "PLT-008", "status": null, "area_m2": 2500.0, "surveyor_note": "" }, "geometry": { "type": "Polygon", "coordinates": [ [ [ 420800.0, 2790000.0 ], [ 420850.0, 2790000.0 ], [ 420850.0, 2790050.0 ], [ 420800.0, 2790050.0 ], [ 420800.0, 2790000.0 ] ] ] } },
{ "type": "Feature", "properties": { "plot_id": "PLT-009", "status": "approved", "area_m2": -2500.0, "surveyor_note": "" }, "geometry": { "type": "Polygon", "coordinates": [ [ [ 420900.0, 2790000.0 ], [ 420950.0, 2790000.0 ], [ 420950.0, 2790050.0 ], [ 420900.0, 2790050.0 ], [ 420900.0, 2790000.0 ] ] ] } }
]
}
